ARIANE 5 R/B            
1 28499U 04049H   25304.40350598  .00001206  00000+0  13982-3 0  9991
2 28499  98.2508 103.1774 0085733  50.6229 310.2538 14.84883241126609
CZ-2D R/B               
1 28738U 05024B   25304.54865483  .00033353  00000+0  58633-3 0  9990
2 28738  97.3683 310.9703 0007793 122.1767 238.0242 15.50393911119718
ALOS (DAICHI)           
1 28931U 06002A   25304.81609253  .00002401  00000+0  41532-3 0  9993
2 28931  98.1019 256.6208 0001651  53.9636 306.1723 14.69276057 54555
H-2A R/B                
1 28932U 06002B   25304.35384889  .00010513  00000+0  57081-3 0  9997
2 28932  98.2287  75.6899 0055021 321.6142  38.1178 15.13430222 74853
RESURS-DK 1             
1 29228U 06021A   25304.82067265  .00003835  00000+0  23006-3 0  9994
2 29228  69.9335 210.1386 0007203 293.0077  67.0328 15.11817544 68042
CZ-4B R/B               
1 29507U 06046C   25304.71192620  .00006925  00000+0  36640-3 0  9994
2 29507  97.5810 344.9670 0034302 357.0428   3.0596 15.15258331 40505
CZ-2C R/B               
1 31114U 07010B   25304.79918201  .00000192  00000+0  10757-3 0  9993
2 31114  98.3950  59.5668 0058086 309.6926  49.9138 14.20184509961427
COSMO-SKYMED 1          
1 31598U 07023A   25304.83752701  .00003863  00000+0  35581-3 0  9999
2 31598  97.8861 129.9728 0001014  83.8582 276.2754 14.95309781995637
COSMOS 2428             
1 31792U 07029A   25304.82599833 -.00000202  00000+0 -82592-4 0  9996
2 31792  70.9363 113.8742 0001776 110.5686 249.5626 14.12892819945890
SL-16 R/B               
1 31793U 07029B   25304.82643781 -.00000041  00000+0  36422-5 0  9991
2 31793  70.9740  83.2579 0002393 260.4392 210.7331 14.14803509947146
KORONAS-FOTON           
1 33504U 09003A   25304.79321435  .00017500  00000+0  43925-3 0  9993
2 33504  82.4325  49.5143 0010657 259.0130 100.9917 15.39819318925883
CZ-2C R/B               
1 37731U 11030B   25304.82657801  .00002413  00000+0  31296-3 0  9990
2 37731  97.8338 259.8844 0054438  50.7974 332.0797 14.80673832771027
