CCSDS_OMM_VERS = 2.0
CREATION_DATE  = 
ORIGINATOR     = 

OBJECT_NAME    = ARIANE 5 R/B
OBJECT_ID      = 2004-049H
CENTER_NAME    = EARTH
REF_FRAME      = TEME
TIME_SYSTEM    = UTC
MEAN_ELEMENT_THEORY = SGP/SGP4

EPOCH          = 2025-10-31T09:41:02.916672
MEAN_MOTION    = 14.84883241
ECCENTRICITY   = .0085733
INCLINATION    = 98.2508
RA_OF_ASC_NODE = 103.1774
ARG_OF_PERICENTER = 50.6229
MEAN_ANOMALY   = 310.2538

EPHEMERIS_TYPE = 0
CLASSIFICATION_TYPE = U
NORAD_CAT_ID   = 28499
ELEMENT_SET_NO = 999
REV_AT_EPOCH   = 12660
BSTAR          = .13982E-3
MEAN_MOTION_DOT = .1206E-4
MEAN_MOTION_DDOT = 0

CCSDS_OMM_VERS = 2.0
CREATION_DATE  = 
ORIGINATOR     = 

OBJECT_NAME    = CZ-2D R/B
OBJECT_ID      = 2005-024B
CENTER_NAME    = EARTH
REF_FRAME      = TEME
TIME_SYSTEM    = UTC
MEAN_ELEMENT_THEORY = SGP/SGP4

EPOCH          = 2025-10-31T13:10:03.777312
MEAN_MOTION    = 15.50393911
ECCENTRICITY   = .0007793
INCLINATION    = 97.3683
RA_OF_ASC_NODE = 310.9703
ARG_OF_PERICENTER = 122.1767
MEAN_ANOMALY   = 238.0242

EPHEMERIS_TYPE = 0
CLASSIFICATION_TYPE = U
NORAD_CAT_ID   = 28738
ELEMENT_SET_NO = 999
REV_AT_EPOCH   = 11971
BSTAR          = .58633E-3
MEAN_MOTION_DOT = .33353E-3
MEAN_MOTION_DDOT = 0

CCSDS_OMM_VERS = 2.0
CREATION_DATE  = 
ORIGINATOR     = 

OBJECT_NAME    = ALOS (DAICHI)
OBJECT_ID      = 2006-002A
CENTER_NAME    = EARTH
REF_FRAME      = TEME
TIME_SYSTEM    = UTC
MEAN_ELEMENT_THEORY = SGP/SGP4

EPOCH          = 2025-10-31T19:35:10.394592
MEAN_MOTION    = 14.69276057
ECCENTRICITY   = .0001651
INCLINATION    = 98.1019
RA_OF_ASC_NODE = 256.6208
ARG_OF_PERICENTER = 53.9636
MEAN_ANOMALY   = 306.1723

EPHEMERIS_TYPE = 0
CLASSIFICATION_TYPE = U
NORAD_CAT_ID   = 28931
ELEMENT_SET_NO = 999
REV_AT_EPOCH   = 5455
BSTAR          = .41532E-3
MEAN_MOTION_DOT = .2401E-4
MEAN_MOTION_DDOT = 0

CCSDS_OMM_VERS = 2.0
CREATION_DATE  = 
ORIGINATOR     = 

OBJECT_NAME    = H-2A R/B
OBJECT_ID      = 2006-002B
CENTER_NAME    = EARTH
REF_FRAME      = TEME
TIME_SYSTEM    = UTC
MEAN_ELEMENT_THEORY = SGP/SGP4

EPOCH          = 2025-10-31T08:29:32.544096
MEAN_MOTION    = 15.13430222
ECCENTRICITY   = .0055021
INCLINATION    = 98.2287
RA_OF_ASC_NODE = 75.6899
ARG_OF_PERICENTER = 321.6142
MEAN_ANOMALY   = 38.1178

EPHEMERIS_TYPE = 0
CLASSIFICATION_TYPE = U
NORAD_CAT_ID   = 28932
ELEMENT_SET_NO = 999
REV_AT_EPOCH   = 7485
BSTAR          = .57081E-3
MEAN_MOTION_DOT = .10513E-3
MEAN_MOTION_DDOT = 0

CCSDS_OMM_VERS = 2.0
CREATION_DATE  = 
ORIGINATOR     = 

OBJECT_NAME    = RESURS-DK 1
OBJECT_ID      = 2006-021A
CENTER_NAME    = EARTH
REF_FRAME      = TEME
TIME_SYSTEM    = UTC
MEAN_ELEMENT_THEORY = SGP/SGP4

EPOCH          = 2025-10-31T19:41:46.116960
MEAN_MOTION    = 15.11817544
ECCENTRICITY   = .0007203
INCLINATION    = 69.9335
RA_OF_ASC_NODE = 210.1386
ARG_OF_PERICENTER = 293.0077
MEAN_ANOMALY   = 67.0328

EPHEMERIS_TYPE = 0
CLASSIFICATION_TYPE = U
NORAD_CAT_ID   = 29228
ELEMENT_SET_NO = 999
REV_AT_EPOCH   = 6804
BSTAR          = .23006E-3
MEAN_MOTION_DOT = .3835E-4
MEAN_MOTION_DDOT = 0

CCSDS_OMM_VERS = 2.0
CREATION_DATE  = 
ORIGINATOR     = 

OBJECT_NAME    = CZ-4B R/B
OBJECT_ID      = 2006-046C
CENTER_NAME    = EARTH
REF_FRAME      = TEME
TIME_SYSTEM    = UTC
MEAN_ELEMENT_THEORY = SGP/SGP4

EPOCH          = 2025-10-31T17:05:10.423680
MEAN_MOTION    = 15.15258331
ECCENTRICITY   = .0034302
INCLINATION    = 97.5810
RA_OF_ASC_NODE = 344.9670
ARG_OF_PERICENTER = 357.0428
MEAN_ANOMALY   = 3.0596

EPHEMERIS_TYPE = 0
CLASSIFICATION_TYPE = U
NORAD_CAT_ID   = 29507
ELEMENT_SET_NO = 999
REV_AT_EPOCH   = 4050
BSTAR          = .3664E-3
MEAN_MOTION_DOT = .6925E-4
MEAN_MOTION_DDOT = 0

CCSDS_OMM_VERS = 2.0
CREATION_DATE  = 
ORIGINATOR     = 

OBJECT_NAME    = CZ-2C R/B
OBJECT_ID      = 2007-010B
CENTER_NAME    = EARTH
REF_FRAME      = TEME
TIME_SYSTEM    = UTC
MEAN_ELEMENT_THEORY = SGP/SGP4

EPOCH          = 2025-10-31T19:10:49.325664
MEAN_MOTION    = 14.20184509
ECCENTRICITY   = .0058086
INCLINATION    = 98.3950
RA_OF_ASC_NODE = 59.5668
ARG_OF_PERICENTER = 309.6926
MEAN_ANOMALY   = 49.9138

EPHEMERIS_TYPE = 0
CLASSIFICATION_TYPE = U
NORAD_CAT_ID   = 31114
ELEMENT_SET_NO = 999
REV_AT_EPOCH   = 96142
BSTAR          = .10757E-3
MEAN_MOTION_DOT = .192E-5
MEAN_MOTION_DDOT = 0

CCSDS_OMM_VERS = 2.0
CREATION_DATE  = 
ORIGINATOR     = 

OBJECT_NAME    = COSMO-SKYMED 1
OBJECT_ID      = 2007-023A
CENTER_NAME    = EARTH
REF_FRAME      = TEME
TIME_SYSTEM    = UTC
MEAN_ELEMENT_THEORY = SGP/SGP4

EPOCH          = 2025-10-31T20:06:02.333664
MEAN_MOTION    = 14.95309781
ECCENTRICITY   = .0001014
INCLINATION    = 97.8861
RA_OF_ASC_NODE = 129.9728
ARG_OF_PERICENTER = 83.8582
MEAN_ANOMALY   = 276.2754

EPHEMERIS_TYPE = 0
CLASSIFICATION_TYPE = U
NORAD_CAT_ID   = 31598
ELEMENT_SET_NO = 999
REV_AT_EPOCH   = 99563
BSTAR          = .35581E-3
MEAN_MOTION_DOT = .3863E-4
MEAN_MOTION_DDOT = 0

CCSDS_OMM_VERS = 2.0
CREATION_DATE  = 
ORIGINATOR     = 

OBJECT_NAME    = COSMOS 2428
OBJECT_ID      = 2007-029A
CENTER_NAME    = EARTH
REF_FRAME      = TEME
TIME_SYSTEM    = UTC
MEAN_ELEMENT_THEORY = SGP/SGP4

EPOCH          = 2025-10-31T19:49:26.255712
MEAN_MOTION    = 14.12892819
ECCENTRICITY   = .0001776
INCLINATION    = 70.9363
RA_OF_ASC_NODE = 113.8742
ARG_OF_PERICENTER = 110.5686
MEAN_ANOMALY   = 249.5626

EPHEMERIS_TYPE = 0
CLASSIFICATION_TYPE = U
NORAD_CAT_ID   = 31792
ELEMENT_SET_NO = 999
REV_AT_EPOCH   = 94589
BSTAR          = -.82592E-4
MEAN_MOTION_DOT = -.202E-5
MEAN_MOTION_DDOT = 0

CCSDS_OMM_VERS = 2.0
CREATION_DATE  = 
ORIGINATOR     = 

OBJECT_NAME    = SL-16 R/B
OBJECT_ID      = 2007-029B
CENTER_NAME    = EARTH
REF_FRAME      = TEME
TIME_SYSTEM    = UTC
MEAN_ELEMENT_THEORY = SGP/SGP4

EPOCH          = 2025-10-31T19:50:04.226784
MEAN_MOTION    = 14.14803509
ECCENTRICITY   = .0002393
INCLINATION    = 70.9740
RA_OF_ASC_NODE = 83.2579
ARG_OF_PERICENTER = 260.4392
MEAN_ANOMALY   = 210.7331

EPHEMERIS_TYPE = 0
CLASSIFICATION_TYPE = U
NORAD_CAT_ID   = 31793
ELEMENT_SET_NO = 999
REV_AT_EPOCH   = 94714
BSTAR          = .36422E-5
MEAN_MOTION_DOT = -.41E-6
MEAN_MOTION_DDOT = 0

CCSDS_OMM_VERS = 2.0
CREATION_DATE  = 
ORIGINATOR     = 

OBJECT_NAME    = KORONAS-FOTON
OBJECT_ID      = 2009-003A
CENTER_NAME    = EARTH
REF_FRAME      = TEME
TIME_SYSTEM    = UTC
MEAN_ELEMENT_THEORY = SGP/SGP4

EPOCH          = 2025-10-31T19:02:13.719840
MEAN_MOTION    = 15.39819318
ECCENTRICITY   = .0010657
INCLINATION    = 82.4325
RA_OF_ASC_NODE = 49.5143
ARG_OF_PERICENTER = 259.0130
MEAN_ANOMALY   = 100.9917

EPHEMERIS_TYPE = 0
CLASSIFICATION_TYPE = U
NORAD_CAT_ID   = 33504
ELEMENT_SET_NO = 999
REV_AT_EPOCH   = 92588
BSTAR          = .43925E-3
MEAN_MOTION_DOT = .175E-3
MEAN_MOTION_DDOT = 0

CCSDS_OMM_VERS = 2.0
CREATION_DATE  = 
ORIGINATOR     = 

OBJECT_NAME    = CZ-2C R/B
OBJECT_ID      = 2011-030B
CENTER_NAME    = EARTH
REF_FRAME      = TEME
TIME_SYSTEM    = UTC
MEAN_ELEMENT_THEORY = SGP/SGP4

EPOCH          = 2025-10-31T19:50:16.340064
MEAN_MOTION    = 14.80673832
ECCENTRICITY   = .0054438
INCLINATION    = 97.8338
RA_OF_ASC_NODE = 259.8844
ARG_OF_PERICENTER = 50.7974
MEAN_ANOMALY   = 332.0797

EPHEMERIS_TYPE = 0
CLASSIFICATION_TYPE = U
NORAD_CAT_ID   = 37731
ELEMENT_SET_NO = 999
REV_AT_EPOCH   = 77102
BSTAR          = .31296E-3
MEAN_MOTION_DOT = .2413E-4
MEAN_MOTION_DDOT = 0

